NORAD_CAT_ID,OBJECT_NAME,OBJECT_TYPE,EPOCH,MEAN_MOTION,ECCENTRICITY,INCLINATION,RA_OF_ASC_NODE,ARG_OF_PERICENTER,MEAN_ANOMALY,BSTAR,MEAN_MOTION_DOT,MEAN_MOTION_DDOT,TLE_LINE0,TLE_LINE1,TLE_LINE2,SEMIMAJOR_AXIS,PERIOD,APOGEE,PERIGEE,DECAYED
51805.0,STARLINK-3605,PAYLOAD,2024-02-29 06:05:26,15.08839198,0.0001471,53.2178,48.6558,97.2457,262.8703,5.1357e-05,5.29e-06,0.0,0 STARLINK-3605,1 51805U 22017AP  24060.25377902  .00000529  00000-0  51357-4 0  9999,2 51805  53.2178  48.6558 0001471  97.2457 262.8703 15.08839198112611,6917.883,95.438,540.765,538.73,0.0
51805.0,STARLINK-3605,PAYLOAD,2024-02-29 15:37:45,15.08838562,0.0001427,53.2174,46.8695,94.6434,265.4721,1.0658e-05,-1.18e-06,0.0,0 STARLINK-3605,1 51805U 22017AP  24060.65121992 -.00000118  00000-0  10658-4 0  9993,2 51805  53.2174  46.8695 0001427  94.6434 265.4721 15.08838562112675,6917.885,95.438,540.737,538.763,0.0
51805.0,STARLINK-3605,PAYLOAD,2024-03-01 04:20:50,15.08838081,0.0001452,53.2179,44.4922,94.6787,265.4371,5.1564e-05,5.33e-06,0.0,0 STARLINK-3605,1 51805U 22017AP  24061.18114212  .00000533  00000-0  51564-4 0  9990,2 51805  53.2179  44.4922 0001452  94.6787 265.4371 15.08838081112752,6917.886,95.438,540.756,538.747,0.0
51805.0,STARLINK-3605,PAYLOAD,2024-03-01 09:06:59,15.08843951,0.0001468,53.2181,43.5991,93.4065,266.7095,0.00010001,1.304e-05,0.0,0 STARLINK-3605,1 51805U 22017AP  24061.37985769  .00001304  00000-0  10001-3 0  9991,2 51805  53.2181  43.5991 0001468  93.4065 266.7095 15.08843951112786,6917.868,95.437,540.749,538.718,0.0
51805.0,STARLINK-3605,PAYLOAD,2024-03-01 15:28:32,15.08841322,0.000148,53.2182,42.4092,91.8451,268.2711,6.4064e-05,7.32e-06,0.0,0 STARLINK-3605,1 51805U 22017AP  24061.64482025  .00000732  00000-0  64064-4 0  9991,2 51805  53.2182  42.4092 0001480  91.8451 268.2711 15.08841322112829,6917.876,95.437,540.765,538.718,0.0
51805.0,STARLINK-3605,PAYLOAD,2024-03-02 05:47:00,15.08843578,0.000141,53.2177,39.732,92.2729,267.8424,8.482e-05,1.062e-05,0.0,0 STARLINK-3605,1 51805U 22017AP  24062.24097857  .00001062  00000-0  84820-4 0  9992,2 51805  53.2177  39.7320 0001410  92.2729 267.8424 15.08843578112913,6917.869,95.437,540.71,538.759,0.0
51805.0,STARLINK-3605,PAYLOAD,2024-03-03 04:02:24,15.08841057,0.0001353,53.2185,35.5683,93.8207,266.294,6.285e-06,-1.88e-06,0.0,0 STARLINK-3605,1 51805U 22017AP  24063.16834238 -.00000188  00000-0  62850-5 0  9995,2 51805  53.2185  35.5683 0001353  93.8207 266.2940 15.08841057113054,6917.877,95.437,540.678,538.806,0.0
51805.0,STARLINK-3605,PAYLOAD,2024-03-03 05:37:47,15.08869979,0.0001223,53.2182,35.2711,99.103,261.0101,-0.0004445,-7.361e-05,0.0,0 STARLINK-3605,1 51805U 22017AP  24063.23457542 -.00007361  00000-0 -44450-3 0  9997,2 51805  53.2182  35.2711 0001223  99.1030 261.0101 15.08869979113065,6917.789,95.436,540.5,538.808,0.0
51805.0,STARLINK-3605,PAYLOAD,2024-03-03 21:31:39,15.08840303,0.0001272,53.2175,32.2988,93.0361,267.0777,5.2791e-05,5.52e-06,0.0,0 STARLINK-3605,1 51805U 22017AP  24063.89698294  .00000552  00000-0  52791-4 0  9991,2 51805  53.2175  32.2988 0001272  93.0361 267.0777 15.08840303113160,6917.879,95.438,540.624,538.865,0.0
51805.0,STARLINK-3605,PAYLOAD,2024-03-04 03:53:11,15.08844273,0.0001504,53.2182,31.1125,77.4245,282.6915,0.00011086,1.477e-05,0.0,0 STARLINK-3605,1 51805U 22017AP  24064.16193878  .00001477  00000-0  11086-3 0  9998,2 51805  53.2182  31.1125 0001504  77.4245 282.6915 15.08844273113206,6917.867,95.437,540.773,538.692,0.0
51805.0,STARLINK-3605,PAYLOAD,2024-03-04 05:28:33,15.08854983,0.0001425,53.2185,30.8119,87.4808,272.6348,0.00014044,1.949e-05,0.0,0 STARLINK-3605,1 51805U 22017AP  24064.22817066  .00001949  00000-0  14044-3 0  9998,2 51805  53.2185  30.8119 0001425  87.4808 272.6348 15.08854983113215,6917.835,95.437,540.685,538.714,0.0
51805.0,STARLINK-3605,PAYLOAD,2024-03-04 15:00:51,15.08861001,0.0001608,53.2196,29.0238,72.7058,287.411,0.00017178,2.448e-05,0.0,0 STARLINK-3605,1 51805U 22017AP  24064.62560125  .00002448  00000-0  17178-3 0  9999,2 51805  53.2196  29.0238 0001608  72.7058 287.4110 15.08861001113272,6917.816,95.436,540.794,538.569,0.0
51805.0,STARLINK-3605,PAYLOAD,2024-03-05 03:44:00,15.08811479,0.0001493,53.2185,26.6495,78.4872,281.6288,-0.00014823,-2.644e-05,0.0,0 STARLINK-3605,1 51805U 22017AP  24065.15556546 -.00002644  00000-0 -14823-3 0  9994,2 51805  53.2185  26.6495 0001493  78.4872 281.6288 15.08811479113352,6917.968,95.439,540.865,538.8,0.0
51805.0,STARLINK-3605,PAYLOAD,2024-03-05 14:51:41,15.08827642,0.0001073,53.2183,24.5676,83.8023,276.3091,-2.7267e-05,-7.22e-06,0.0,0 STARLINK-3605,1 51805U 22017AP  24065.61923527 -.00000722  00000-0 -27267-4 0  9994,2 51805  53.2183  24.5676 0001073  83.8023 276.3091 15.08827642113420,6917.918,95.438,540.525,539.041,0.0
51805.0,STARLINK-3605,PAYLOAD,2024-03-06 03:34:45,15.08852517,0.0001377,53.2189,22.1878,97.7827,262.3321,2.9587e-05,1.83e-06,0.0,0 STARLINK-3605,1 51805U 22017AP  24066.14914060  .00000183  00000-0  29587-4 0  9991,2 51805  53.2189  22.1878 0001377  97.7827 262.3321 15.08852517113506,6917.842,95.437,540.66,538.755,0.0
51805.0,STARLINK-3605,PAYLOAD,2024-03-06 06:45:31,15.08854036,0.0001315,53.2187,21.5919,103.3459,256.768,7.8547e-05,9.63e-06,0.0,0 STARLINK-3605,1 51805U 22017AP  24066.28161666  .00000963  00000-0  78547-4 0  9998,2 51805  53.2187  21.5919 0001315 103.3459 256.7680 15.08854036113525,6917.837,95.437,540.612,538.793,0.0
51805.0,STARLINK-3605,PAYLOAD,2024-03-07 03:25:33,15.08822712,0.0001122,53.2182,17.7253,90.8974,269.2146,0.00024591,3.626e-05,0.0,0 STARLINK-3605,1 51805U 22017AP  24067.14275221  .00003626  00000-0  24591-3 0  9995,2 51805  53.2182  17.7253 0001122  90.8974 269.2146 15.08822712113652,6917.933,95.439,540.574,539.022,0.0
51805.0,STARLINK-3605,PAYLOAD,2024-03-07 06:36:20,15.08827573,0.0001259,53.2188,17.1325,90.2771,269.8365,0.0001816,2.603e-05,0.0,0 STARLINK-3605,1 51805U 22017AP  24067.27523275  .00002603  00000-0  18160-3 0  9993,2 51805  53.2188  17.1325 0001259  90.2771 269.8365 15.08827573113673,6917.918,95.438,540.654,538.912,0.0
51805.0,STARLINK-3605,PAYLOAD,2024-03-08 01:40:56,15.08867755,0.0001371,53.2188,13.5646,83.4219,276.6929,-0.00037397,-6.239e-05,0.0,0 STARLINK-3605,1 51805U 22017AP  24068.07010254 -.00006239  00000-0 -37397-3 0  9994,2 51805  53.2188  13.5646 0001371  83.4219 276.6929 15.08867755113796,6917.796,95.436,540.609,538.712,0.0
51805.0,STARLINK-3605,PAYLOAD,2024-03-08 03:16:20,15.08845105,0.0001302,53.2189,13.267,96.2178,263.8962,-1.1255e-05,-4.67e-06,0.0,0 STARLINK-3605,1 51805U 22017AP  24068.13634907 -.00000467  00000-0 -11255-4 0  9991,2 51805  53.2189  13.2670 0001302  96.2178 263.8962 15.08845105113803,6917.865,95.437,540.63,538.829,0.0
51805.0,STARLINK-3605,PAYLOAD,2024-03-08 12:48:38,15.08856016,0.0001564,53.22,11.4839,68.5813,291.5346,5.5489e-05,5.96e-06,0.0,0 STARLINK-3605,1 51805U 22017AP  24068.53377906  .00000596  00000-0  55489-4 0  9996,2 51805  53.2200  11.4839 0001564  68.5813 291.5346 15.08856016113865,6917.831,95.437,540.778,538.614,0.0
51805.0,STARLINK-3605,PAYLOAD,2024-03-08 20:45:35,15.08837022,0.0002075,53.2186,9.9959,79.1005,281.022,7.2143e-05,8.6e-06,0.0,0 STARLINK-3605,1 51805U 22017AP  24068.86499111  .00000860  00000-0  72143-4 0  9995,2 51805  53.2186   9.9959 0002075  79.1005 281.0220 15.08837022113919,6917.889,95.438,541.19,538.319,0.0
51805.0,STARLINK-3605,PAYLOAD,2024-03-09 01:31:45,15.08830777,0.0001428,53.2191,9.1045,85.1499,274.9656,1.2155e-05,-9.5e-07,0.0,0 STARLINK-3605,1 51805U 22017AP  24069.06371657 -.00000095  00000-0  12155-4 0  9990,2 51805  53.2191   9.1045 0001428  85.1499 274.9656 15.08830777113945,6917.909,95.438,540.761,538.786,0.0
51805.0,STARLINK-3605,PAYLOAD,2024-03-09 06:17:54,15.08836835,0.000139,53.2189,8.2115,100.4965,259.6184,7.3753e-05,8.86e-06,0.0,0 STARLINK-3605,1 51805U 22017AP  24069.26243161  .00000886  00000-0  73753-4 0  9998,2 51805  53.2189   8.2115 0001390 100.4965 259.6184 15.08836835113977,6917.89,95.438,540.717,538.793,0.0
51805.0,STARLINK-3605,PAYLOAD,2024-03-10 12:30:12,15.08860004,0.0001588,53.2192,2.5589,65.9686,294.1472,9.8568e-05,1.282e-05,0.0,0 STARLINK-3605,1 51805U 22017AP  24070.52097608  .00001282  00000-0  98568-4 0  9994,2 51805  53.2192   2.5589 0001588  65.9686 294.1472 15.08860004114168,6917.819,95.436,540.783,538.586,0.0
51805.0,STARLINK-3605,PAYLOAD,2024-03-11 02:48:42,15.08829925,0.0001562,53.2195,359.8848,88.3955,271.7216,6.3341e-07,-2.78e-06,0.0,0 STARLINK-3605,1 51805U 22017AP  24071.11716002 -.00000278  00000-0  63341-6 0  9994,2 51805  53.2195 359.8848 0001562  88.3955 271.7216 15.08829925114251,6917.911,95.438,540.857,538.696,0.0
51805.0,STARLINK-3605,PAYLOAD,2024-03-11 12:21:00,15.08841237,0.0001463,53.2195,358.1011,91.1746,268.9414,7.6783e-05,9.34e-06,0.0,0 STARLINK-3605,1 51805U 22017AP  24071.51459144  .00000934  00000-0  76783-4 0  9999,2 51805  53.2195 358.1011 0001463  91.1746 268.9414 15.08841237114310,6917.877,95.437,540.754,538.73,0.0
51805.0,STARLINK-3605,PAYLOAD,2024-03-12 18:33:18,15.08850171,0.0001121,53.2197,352.4522,71.3198,288.7915,0.00032596,4.905e-05,0.0,0 STARLINK-3605,1 51805U 22017AP  24072.77313414  .00004905  00000-0  32596-3 0  9992,2 51805  53.2197 352.4522 0001121  71.3198 288.7915 15.08850171114502,6917.849,95.437,540.49,538.939,0.0
51805.0,STARLINK-3605,PAYLOAD,2024-03-13 04:05:39,15.08828574,0.0001445,53.2188,350.6694,86.7076,273.4081,-4.0661e-05,-9.35e-06,0.0,0 STARLINK-3605,1 51805U 22017AP  24073.17059556 -.00000935  00000-0 -40661-4 0  9995,2 51805  53.2188 350.6694 0001445  86.7076 273.4081 15.08828574114569,6917.915,95.438,540.78,538.781,0.0
51805.0,STARLINK-3605,PAYLOAD,2024-03-13 12:02:34,15.08833496,0.0001406,53.2188,349.183,83.5542,276.561,-2.0493e-05,-6.14e-06,0.0,0 STARLINK-3605,1 51805U 22017AP  24073.50179300 -.00000614  00000-0 -20493-4 0  9997,2 51805  53.2188 349.1830 0001406  83.5542 276.5610 15.08833496114611,6917.9,95.438,540.738,538.793,0.0
